SZ-21 MODULE            
1 66515U 25246C   25337.33312405  .00032620  00000+0  36812-3 0  9998
2 66515  41.4771  73.3983 0005832 205.8085 154.2464 15.61790567  2979
SHENZHOU-22             
1 66645U 25272A   25337.74559546  .00027527  00000+0  35133-3 0  9990
2 66645  41.4679  71.2873 0010068 322.1315  37.8814 15.58598848262631
CZ-2F R/B               
1 66646U 25272B   25330.47076975  .00449059  75676-5  29319-3 0  9998
2 66646  41.4431 114.9009 0121079 133.7676 227.3272 16.01945612   217
SOYUZ-MS 28             
1 66664U 25275A   25337.89837126  .00013627  00000+0  25253-3 0  9991
2 66664  51.6303 186.2514 0003592 201.3576 158.7263 15.49284650  1072
